#dP2022  9 23  6  0  0.00000000      96 __u+U ITR00 EXT  IAC
## 2228 453600.00000000   900.00000000 59845 0.2500000000000
+  116   C06C07C08C09C10C11C12C13C14C16C19C20C21C22C23C24C25
+        C26C27C28C29C30C32C33C34C35C36C37C38C39C40C41C42C43
+        C44C45C46E01E02E03E04E05E07E08E09E10E11E12E13E14E15
+        E18E19E21E24E25E26E27E30E31E33E34E36G01G02G03G04G05
+        G07G08G09G10G11G12G13G14G15G16G17G18G19G20G21G22G23
+        G24G25G26G27G28G29G30G31G32J02J03R01R02R03R04R05R07
+        R08R09R11R12R13R14R15R17R18R19R20R21R24R25  0  0  0
++        11  8 10 11  7  9  9 10  9 13  8  8  8  8  8  9  8
++         8  9 10  9 11  8  9  9  9  8  9  8 10  8  8  8 10
++        10  9  9  8  8  8  8  9  8  8  8 10  9  8  9  9  8
++         9  9  8  8  8  9  9  8  9  8  8  8  8  8  8  9  8
++         8  7  8  8  8  8  8  8  8  8  9  7  8  8  8  8  8
++         8  8  8  8  9  7 11  8  8 10 10  9  9  8  8  9  9
++         8  9  8  9  8  9 10  8  9 10 10  8  9  9  0  0  0
%c M  cc GPS ccc cccc cccc cccc cccc ccccc ccccc ccccc ccccc
%c cc cc ccc ccc cccc cccc cccc cccc ccccc ccccc ccccc ccccc
%f  0.0000000  0.000000000  0.00000000000  0.000000000000000
%f  0.0000000  0.000000000  0.00000000000  0.000000000000000
%i    0    0    0    0      0      0      0      0         0
%i    0    0    0    0      0      0      0      0         0
/* IAC                                ULTRA-RAPID PREDICTION
/* S/V CLOCKS ARE ALIGNED TO GNSS TIME                      
/* G:C1WC2W R:C1PC2P E:C1XC5X C:C2IC6I J:C1CC2S             
/* PCV:IGS14_2218 OL/AL:FES2004  NONE     YN ORB:CoN CLK:CoN
*  2022 09 23 10 45  0.00000000
PC06  -9174.278991  23107.908789  34049.079421    903.255870
PC07 -16854.310696  37598.068146  -9301.929379   -180.126889
PC08   -834.053207  35333.387467 -22852.002691    478.435912
PC09   1659.670965  25441.363331  34020.152886   -855.228387
PC10 -10945.509256  37968.812236 -15105.397186     93.153977
PC11 -22661.969878 -10850.258490  12253.281020   -392.353475
PC12  -5285.269701 -15562.815730  22594.622764   -508.150030
PC13   4721.466965  38567.715580 -15892.302952     88.197175
PC14 -12581.461531  -9614.145970 -22967.701436    671.721237
PC16 -13560.281461  21333.971225  33891.190855    135.625239
PC19  17992.863421   -225.870474  21340.307548   -718.077971
PC20   6395.527559  16574.354099  21530.648418    742.971908
PC21   9916.314374 -24560.528099  -8749.170408   -455.402677
PC22  19738.996478 -17649.608837   8763.253487   -748.221006
PC23 -13863.111956   8769.703357  22585.777529   -219.193895
PC24 -12332.032609 -25029.464223   1011.095122   -278.379139
PC25 -19094.060282 -10202.964057  17616.250796   -674.114972
PC26   -487.018442 -24070.240284 -14151.101509    -11.541656
PC27  -5021.111813  15341.923145 -22781.580235     25.231401
PC28 -22434.054358   7870.294701 -14617.531018     16.244565
PC29  27470.249274   3857.444153  -3024.076925     17.365633
PC30  15481.183421  13936.018925 -18583.576394      0.080269
PC32  -9793.961853  24658.308921   8668.624471   -790.494971
PC33 -17979.893920    239.211137 -21348.195411   -734.373927
PC34 -16527.783168 -13604.399993  17884.719124      1.143368
PC35  23122.018319  -7899.628468  13496.208224      9.805309
PC36  18827.003008  11226.051310 -17236.633118   -345.813234
PC37  -1103.652517  23434.753510  15111.867279   -284.903727
PC38  -7172.370419  31048.828070 -27501.970616     26.221031
PC39 -18583.796594  20061.212532  32058.381835     -0.487198
PC40 -24155.496578  33921.134070  -7289.935038     -4.683779
PC41 -19797.865801  17359.630528  -9200.682332   -105.442887
PC42  -5503.699595 -17437.306780 -21040.480447   -346.398930
PC43 -27291.060675  -4429.243752   3719.040914     15.794497
PC44   4747.847200 -15599.320557  22638.066441     59.187838
PC45  13536.901198  -9117.756489 -22629.333751     -1.224097
PC46  13288.487437  24367.091947  -2676.067039     -1.727366
PE01  -2349.820715  29490.317202   -908.266366   -533.511274
PE02   2213.115833 -29505.109147   1108.621835    326.440468
PE03   4832.738767 -19227.249575 -21984.791259   -602.710845
PE04  15641.262562  10518.480543  22823.347563  -1121.567708
PE05  22941.855593 -16819.799236  -8183.172997   -141.278567
PE07 -27417.032119   4676.671213 -10144.960656   -707.629680
PE08 -15696.246067 -10296.376595 -22894.072387   -603.536416
PE09  27341.178067  -4704.644574  10297.538348   -668.553554
PE10  25524.198635  14249.554000   4590.006020   -478.798992
PE11  25125.983170   6418.398321  14261.336500   2101.020499
PE12  21795.624980  19388.502107  -5044.000046   -184.568368
PE13 -25314.636995  -7058.454913 -13625.035886    430.609081
PE14 -10056.747898  21758.334914 -21816.231698      7.723946
PE15 -21726.951898 -19405.521110   5270.448714    718.581998
PE18   1160.540702 -15673.667398  17818.482517   -943.222372
PE19  -7755.074030  19481.887662  20892.150558  -4454.573236
PE21 -12826.189159  21645.174966  15599.181863   -759.375894
PE24  16784.008850    378.054417 -24383.770210   -852.534590
PE25  12940.167098 -21420.522570 -15797.605574   -588.397255
PE26 -13364.476301  10087.776282 -24409.289178  -1645.921737
PE27 -16808.649191    864.348565  24359.320219   -398.774119
PE30 -10379.786937 -20968.927903  18138.295860   -859.658701
PE31  10851.541169  20216.131622 -18684.263218   -504.183869
PE33   5341.019814  20226.522016 -20938.629869   -454.007480
PE34  -5581.480191 -20278.498579  20828.000533     -5.936427
PE36  14017.388674  -9314.438462  24349.151741   -435.624361
PG01  21942.784199  13693.290791   6466.236944    279.106597
PG02 -20860.664072 -16291.600553   1288.326570   -645.044677
PG03  12738.818223   9667.883269  21097.510598   -355.388192
PG04  22467.352360   3113.665242  13902.992122   -114.490799
PG05  -7923.439089 -20234.781970 -15361.841155    -97.732464
PG07  19692.845800    398.672372 -17622.079924    305.212982
PG08  15369.519192   8988.226010 -19857.972851    -85.814438
PG09  25437.872990  -6716.611502   3723.772924   -292.488491
PG10 -11362.355158  21179.700984 -10803.558990     -4.512355
PG11  -8321.304616 -21150.108468  13772.875860    -18.808300
PG12 -11850.024745 -11162.586413  20742.516854   -282.826395
PG13  -6345.130306 -14000.437478 -21844.551713    392.908289
PG14  13264.341774 -19473.632671 -12141.003238   -101.403268
PG15 -16556.505607  -8019.552553 -19690.972567    -26.689170
PG16   1083.743818  24045.589696 -10973.581091   -524.849469
PG17  20629.953437 -13305.993750  10650.871330    661.967155
PG18 -18582.836229    803.411635 -19019.456320     38.950244
PG19  12199.065076 -15169.908608  17712.182023    214.473723
PG20  -1040.383511 -26564.500424  -2314.499789    484.107309
PG21  21083.741591  16655.929937  -1624.682796    159.072927
PG22  -8801.935776  16277.274121  19408.987882    332.948285
PG23 -14701.011726  12195.621873 -18410.433886     -0.351492
PG24 -22352.526835 -14629.969221   1691.876719    125.604332
PG25 -15563.681107   2384.982539  21063.481064    375.046320
PG26  -2995.254811  26209.959167   -421.530374    229.707639
PG27   2703.835556  14973.703242 -21959.636472    208.192334
PG28   9185.476777 -24823.679152  -2926.263901    336.211424
PG29 -25926.396467   3791.590867   4566.977597   -553.944553
PG30  11800.933468 -10485.612613 -21280.109980   -537.111366
PG31  -1570.577559  17370.062033  19751.945228   -194.357843
PG32 -17649.442412  15543.656759  12298.559322   -241.789423
PJ02 -28839.331237  25940.911445  21510.690004     -5.628795
PJ03 -29530.433791  16080.773430 -20847.402517     -1.941113
PR01 -12812.919954  -1958.962765 -21976.556329     15.169376
PR02 -19819.529355  13082.510179  -9184.312497    -22.743911
PR03 -14271.943514  19433.276698   8272.446318     64.228834
PR04  -1168.585327  14673.416397  20849.596479    158.613824
PR05  12729.091120   2017.135209  22022.321662    100.089201
PR07  13934.338325 -19457.908351  -8868.052461     41.435430
PR08    989.048811 -14702.289794 -20779.821193    -67.311013
PR09  10253.495064  -5147.261694 -22756.497794     78.243543
PR11  -7026.001497 -24504.533161    667.337335     26.604825
PR12 -12336.137033 -13838.679547  17559.613843     21.537283
PR13 -10485.958429   3475.042395  22983.091836    -27.082728
PR14  -1946.226669  20649.710618  14878.855456     24.245953
PR15   7178.540240  24425.318501  -1611.877112     93.573856
PR17  -7321.631997   8686.563116 -22835.756934    563.338730
PR18  10510.367810  12310.669956 -19714.175913     43.775302
PR19  21938.927188  10614.801062  -7504.491210   -204.720779
PR20  22065.048434   1251.980805  12771.343751    -78.891862
PR21   5596.625744  -9196.042869  23122.286702   -335.975878
PR24 -21839.155418    -22.643671 -13185.471376    116.208993
PR25 -10543.848184 -13089.105565  19211.206245     13.484989
EOF
